{"fetched_at":"2026-03-29T16:36:15Z","count":15609,"tles":[{"name":"STARLINK-31959","line1":"1 59925U 24106D   26087.76523950  .00000953  00000+0  44153-4 0  9990","line2":"2 59925  43.0030 220.9591 0001070 267.7964  92.2765 15.27589131103488","category":"Starlink"}]}