{
  "norad_id": 59925,
  "name": "STARLINK-31959",
  "history": [
    {
      "epoch": "2026-03-28T18:21:56.692800Z",
      "apogee_km": 483.7564475564368,
      "perigee_km": 482.2870617975341,
      "latitude_deg": -2.624918884808879e-06,
      "longitude_deg": 119.29188685818423,
      "height_km": 482.8267549059201,
      "semi_major_axis_km": 6861.158754676985,
      "eccentricity": 0.00010708,
      "inclination_deg": 43.003,
      "raan_deg": 220.9591,
      "arg_perigee_deg": 267.7964,
      "mean_anomaly_deg": 92.2765,
      "mean_motion_rev_day": 15.27589131
    }
  ]
}